{
    "type": "FeatureCollection",
    "features": [
        {
            "type": "Feature",
            "properties": {
                "id": "compressor-aberdeen",
                "name": "Aberdeen Compressor Station",
                "kind": "compressor_station",
                "status": "operating",
                "source_id": "MPS:mps_mapping_terminal.acce828a-4128-421d-aab2-26cf58a6b151"
            },
            "geometry": {
                "type": "Point",
                "coordinates": [
                    -2.38513,
                    57.13845
                ]
            }
        },
        {
            "type": "Feature",
            "properties": {
                "id": "compressor-abson",
                "name": "Abson Compressor Station",
                "kind": "compressor_station",
                "status": "operating",
                "source_id": "OSM:r11513074"
            },
            "geometry": {
                "type": "Point",
                "coordinates": [
                    -2.41794,
                    51.47892
                ]
            }
        },
        {
            "type": "Feature",
            "properties": {
                "id": "compressor-alrewas",
                "name": "Alrewas Compressor Station",
                "kind": "compressor_station",
                "status": "operating",
                "source_id": "MPS:mps_mapping_terminal.2ae360df-bd22-4bcf-97e0-68feefc25d01"
            },
            "geometry": {
                "type": "Point",
                "coordinates": [
                    -1.77529,
                    52.73496
                ]
            }
        },
        {
            "type": "Feature",
            "properties": {
                "id": "compressor-aylesbury",
                "name": "Aylesbury Compressor Station",
                "kind": "compressor_station",
                "status": "operating",
                "source_id": "MPS:mps_mapping_terminal.c8bae150-8141-4bef-a925-d6bebfe8235b"
            },
            "geometry": {
                "type": "Point",
                "coordinates": [
                    -0.9631,
                    51.86133
                ]
            }
        },
        {
            "type": "Feature",
            "properties": {
                "id": "compressor-bathgate",
                "name": "Bathgate Compressor Station",
                "kind": "compressor_station",
                "status": "operating",
                "source_id": "MPS:mps_mapping_terminal.d37941bf-2a33-40ff-8a0c-6bc1d3a3a12c"
            },
            "geometry": {
                "type": "Point",
                "coordinates": [
                    -3.73862,
                    55.91898
                ]
            }
        },
        {
            "type": "Feature",
            "properties": {
                "id": "compressor-bishop-auckland",
                "name": "Bishop Auckland Compressor Station",
                "kind": "compressor_station",
                "status": "operating",
                "source_id": "MPS:mps_mapping_terminal.24b82e0a-892a-4a65-ba43-c72eb70b397e"
            },
            "geometry": {
                "type": "Point",
                "coordinates": [
                    -1.56615,
                    54.66908
                ]
            }
        },
        {
            "type": "Feature",
            "properties": {
                "id": "compressor-cambridge",
                "name": "Cambridge Compressor Station",
                "kind": "compressor_station",
                "status": "operating",
                "source_id": "MPS:mps_mapping_terminal.1a12dae7-8a89-4a4f-bdb1-e2fcfb6a6dd1"
            },
            "geometry": {
                "type": "Point",
                "coordinates": [
                    0.16601,
                    52.08102
                ]
            }
        },
        {
            "type": "Feature",
            "properties": {
                "id": "compressor-carnforth",
                "name": "Carnforth Compressor Station",
                "kind": "compressor_station",
                "status": "operating",
                "source_id": "MPS:mps_mapping_terminal.52a3b400-b007-4996-97de-c7c8fa64a5e4"
            },
            "geometry": {
                "type": "Point",
                "coordinates": [
                    -2.73753,
                    54.10168
                ]
            }
        },
        {
            "type": "Feature",
            "properties": {
                "id": "compressor-chelmsford",
                "name": "Chelmsford Compressor Station",
                "kind": "compressor_station",
                "status": "operating",
                "source_id": "MPS:mps_mapping_terminal.0fcd007b-c160-485b-8458-07252984287d"
            },
            "geometry": {
                "type": "Point",
                "coordinates": [
                    0.40494,
                    51.74923
                ]
            }
        },
        {
            "type": "Feature",
            "properties": {
                "id": "compressor-churchover",
                "name": "Churchover Compressor Station",
                "kind": "compressor_station",
                "status": "operating",
                "source_id": "MPS:mps_mapping_terminal.2ac9e9a4-d374-4503-be34-f60b6cab9963"
            },
            "geometry": {
                "type": "Point",
                "coordinates": [
                    -1.27203,
                    52.41424
                ]
            }
        },
        {
            "type": "Feature",
            "properties": {
                "id": "compressor-diss",
                "name": "Diss Compressor Station",
                "kind": "compressor_station",
                "status": "operating",
                "source_id": "MPS:mps_mapping_terminal.bc13d7f2-058b-45cf-87b7-0c8a0fa3d36c"
            },
            "geometry": {
                "type": "Point",
                "coordinates": [
                    1.13175,
                    52.33128
                ]
            }
        },
        {
            "type": "Feature",
            "properties": {
                "id": "compressor-felindre",
                "name": "Felindre Compressor Station",
                "kind": "compressor_station",
                "status": "operating",
                "source_id": "MPS:mps_mapping_terminal.4a78994e-15b5-44d6-9620-1129ace79734"
            },
            "geometry": {
                "type": "Point",
                "coordinates": [
                    -3.95943,
                    51.69095
                ]
            }
        },
        {
            "type": "Feature",
            "properties": {
                "id": "compressor-hatton",
                "name": "Hatton Compressor Station",
                "kind": "compressor_station",
                "status": "operating",
                "source_id": "MPS:mps_mapping_terminal.1c4f6a61-3d4f-4992-8ab4-c100e1c8f1dc"
            },
            "geometry": {
                "type": "Point",
                "coordinates": [
                    -0.23922,
                    53.26999
                ]
            }
        },
        {
            "type": "Feature",
            "properties": {
                "id": "compressor-huntingdon",
                "name": "Huntingdon Compressor Station",
                "kind": "compressor_station",
                "status": "operating",
                "source_id": "MPS:mps_mapping_terminal.f512ef9b-9108-476e-a809-542406c07262"
            },
            "geometry": {
                "type": "Point",
                "coordinates": [
                    -0.36335,
                    52.31183
                ]
            }
        },
        {
            "type": "Feature",
            "properties": {
                "id": "compressor-kings-lynn",
                "name": "Kings Lynn Compressor Station",
                "kind": "compressor_station",
                "status": "operating",
                "source_id": "MPS:mps_mapping_terminal.11e011d1-856e-4dda-a97c-2b5988e30ecc"
            },
            "geometry": {
                "type": "Point",
                "coordinates": [
                    0.54556,
                    52.71568
                ]
            }
        },
        {
            "type": "Feature",
            "properties": {
                "id": "compressor-kirriemuir",
                "name": "Kirriemuir Compressor Station",
                "kind": "compressor_station",
                "status": "operating",
                "source_id": "MPS:mps_mapping_terminal.7f1d487b-e996-4940-9535-f4105ffb93b4"
            },
            "geometry": {
                "type": "Point",
                "coordinates": [
                    -2.93052,
                    56.68217
                ]
            }
        },
        {
            "type": "Feature",
            "properties": {
                "id": "compressor-moffat",
                "name": "Moffat Compressor Station",
                "kind": "compressor_station",
                "status": "operating",
                "source_id": "MPS:mps_mapping_terminal.a4a0ceaa-0516-4667-a351-c0f259dcb510"
            },
            "geometry": {
                "type": "Point",
                "coordinates": [
                    -3.44024,
                    55.27942
                ]
            }
        },
        {
            "type": "Feature",
            "properties": {
                "id": "compressor-peterborough",
                "name": "Peterborough Compressor Station",
                "kind": "compressor_station",
                "status": "operating",
                "source_id": "MPS:mps_mapping_terminal.bd3e2dbd-395d-470e-8efa-d95eaf63b7a6"
            },
            "geometry": {
                "type": "Point",
                "coordinates": [
                    -0.29978,
                    52.62643
                ]
            }
        },
        {
            "type": "Feature",
            "properties": {
                "id": "compressor-scunthorpe",
                "name": "Scunthorpe Compressor Station",
                "kind": "compressor_station",
                "status": "operating",
                "source_id": "MPS:mps_mapping_terminal.1a13eec2-f3d3-4014-bbc5-9a64df19b4a4"
            },
            "geometry": {
                "type": "Point",
                "coordinates": [
                    -0.68118,
                    53.52837
                ]
            }
        },
        {
            "type": "Feature",
            "properties": {
                "id": "compressor-warrington",
                "name": "Warrington Compressor Station",
                "kind": "compressor_station",
                "status": "operating",
                "source_id": "MPS:mps_mapping_terminal.870b9f8e-5fcc-4e09-9f68-b37e2e2c2d97"
            },
            "geometry": {
                "type": "Point",
                "coordinates": [
                    -2.48042,
                    53.40793
                ]
            }
        },
        {
            "type": "Feature",
            "properties": {
                "id": "compressor-wisbech",
                "name": "Wisbech Compressor Station",
                "kind": "compressor_station",
                "status": "operating",
                "source_id": "MPS:mps_mapping_terminal.faf4c867-669d-4fd0-afec-1f28a5c7c785"
            },
            "geometry": {
                "type": "Point",
                "coordinates": [
                    0.16302,
                    52.723
                ]
            }
        },
        {
            "type": "Feature",
            "properties": {
                "id": "compressor-wooler",
                "name": "Wooler Compressor Station",
                "kind": "compressor_station",
                "status": "operating",
                "source_id": "MPS:mps_mapping_terminal.bc423702-323d-4788-980a-00dc8a303ee9"
            },
            "geometry": {
                "type": "Point",
                "coordinates": [
                    -2.08834,
                    55.58153
                ]
            }
        },
        {
            "type": "Feature",
            "properties": {
                "id": "compressor-wormington",
                "name": "Wormington Compressor Station",
                "kind": "compressor_station",
                "status": "operating",
                "source_id": "MPS:mps_mapping_terminal.35dbebf4-a845-43f0-8381-5dc70617e30b"
            },
            "geometry": {
                "type": "Point",
                "coordinates": [
                    -1.92736,
                    52.02888
                ]
            }
        },
        {
            "type": "Feature",
            "properties": {
                "id": "storage-aldbrough",
                "name": "Aldbrough Gas Storage",
                "kind": "gas_storage",
                "status": "operating",
                "source_id": "MPS:mps_mapping_terminal.6f717cdd-a14d-445f-928a-d5c7097c1712"
            },
            "geometry": {
                "type": "Point",
                "coordinates": [
                    -0.08694,
                    53.81298
                ]
            }
        },
        {
            "type": "Feature",
            "properties": {
                "id": "storage-atwick",
                "name": "Atwick Gas Storage (Hornsea)",
                "kind": "gas_storage",
                "status": "operating",
                "source_id": "MPS:mps_mapping_terminal.a6116663-ac4d-4622-9163-db19dbc156e5"
            },
            "geometry": {
                "type": "Point",
                "coordinates": [
                    -0.20771,
                    53.94583
                ]
            }
        },
        {
            "type": "Feature",
            "properties": {
                "id": "storage-hatfield-moor",
                "name": "Hatfield Moor Gas Storage",
                "kind": "gas_storage",
                "status": "operating",
                "source_id": "MPS:mps_mapping_terminal.ae757fee-8d4f-4010-8cbb-3ea970e5e7c8"
            },
            "geometry": {
                "type": "Point",
                "coordinates": [
                    -0.95848,
                    53.55373
                ]
            }
        },
        {
            "type": "Feature",
            "properties": {
                "id": "storage-hole-house",
                "name": "Hole House Farm Gas Storage",
                "kind": "gas_storage",
                "status": "operating",
                "source_id": "MPS:mps_mapping_terminal.3c791f95-0a48-4e5d-a773-8a5114608b75"
            },
            "geometry": {
                "type": "Point",
                "coordinates": [
                    -2.45612,
                    53.13968
                ]
            }
        },
        {
            "type": "Feature",
            "properties": {
                "id": "storage-holford",
                "name": "Holford Gas Storage",
                "kind": "gas_storage",
                "status": "operating",
                "source_id": "MPS:mps_mapping_terminal.93e0485c-6978-4c8a-960d-2240bbd54f3c"
            },
            "geometry": {
                "type": "Point",
                "coordinates": [
                    -2.40482,
                    53.22605
                ]
            }
        },
        {
            "type": "Feature",
            "properties": {
                "id": "storage-humbly-grove",
                "name": "Humbly Grove Gas Storage",
                "kind": "gas_storage",
                "status": "operating",
                "source_id": "MPS:mps_mapping_terminal.acccf828-bea3-4081-823f-f45528f33b8c"
            },
            "geometry": {
                "type": "Point",
                "coordinates": [
                    -1.01007,
                    51.19519
                ]
            }
        },
        {
            "type": "Feature",
            "properties": {
                "id": "storage-stublach",
                "name": "Stublach Gas Storage",
                "kind": "gas_storage",
                "status": "operating",
                "source_id": "MPS:mps_mapping_terminal.7dac0b7f-6a71-411b-b6bc-7f0b4c948ed4"
            },
            "geometry": {
                "type": "Point",
                "coordinates": [
                    -2.43787,
                    53.23528
                ]
            }
        },
        {
            "type": "Feature",
            "properties": {
                "id": "terminal-kinneil",
                "name": "Kinneil Terminal (Grangemouth)",
                "kind": "gas_processing",
                "status": "operating",
                "source_id": "MPS:mps_mapping_terminal.0e984332-394f-4663-87f0-fde95ae7f01f"
            },
            "geometry": {
                "type": "Point",
                "coordinates": [
                    -3.671,
                    56.00609
                ]
            }
        },
        {
            "type": "Feature",
            "properties": {
                "id": "terminal-point-of-ayr",
                "name": "Point of Ayr Gas Terminal",
                "kind": "gas_processing",
                "status": "operating",
                "source_id": "OSM:w169079879"
            },
            "geometry": {
                "type": "Point",
                "coordinates": [
                    -3.31912,
                    53.34587
                ]
            }
        },
        {
            "type": "Feature",
            "properties": {
                "id": "terminal-wytch-farm",
                "name": "Wytch Farm Gathering Station",
                "kind": "gas_processing",
                "status": "operating",
                "source_id": "OSM:w123098589"
            },
            "geometry": {
                "type": "Point",
                "coordinates": [
                    -2.03769,
                    50.66616
                ]
            }
        }
    ]
}